[{"OBJECT_NAME":"STARLINK-31349","OBJECT_ID":"2024-056X","EPOCH":"2026-03-09T11:36:04.250592","MEAN_MOTION":15.27574483,"ECCENTRICITY":0.00011081,"INCLINATION":42.9995,"RA_OF_ASC_NODE":231.7936,"ARG_OF_PERICENTER":266.9092,"MEAN_ANOMALY":93.1633,"EPHEMERIS_TYPE":0,"CLASSIFICATION_TYPE":"U","NORAD_CAT_ID":59317,"ELEMENT_SET_NO":999,"REV_AT_EPOCH":11119,"BSTAR":2.004942e-6,"MEAN_MOTION_DOT":-2.07e-6,"MEAN_MOTION_DDOT":0},{"OBJECT_NAME":"OBJECT E","OBJECT_ID":"2024-174E","EPOCH":"2026-03-09T23:40:24.424320","MEAN_MOTION":15.26241811,"ECCENTRICITY":0.00122518,"INCLINATION":97.4515,"RA_OF_ASC_NODE":80.1669,"ARG_OF_PERICENTER":217.7524,"MEAN_ANOMALY":142.2856,"EPHEMERIS_TYPE":0,"CLASSIFICATION_TYPE":"U","NORAD_CAT_ID":61242,"ELEMENT_SET_NO":999,"REV_AT_EPOCH":8070,"BSTAR":0.00031155901,"MEAN_MOTION_DOT":8.013e-5,"MEAN_MOTION_DDOT":0}]
